ONEWEB-0159             
1 48062U 21025W   24145.94563477 -.00000194  00000+0 -56722-3 0  9991
2 48062  87.8909 110.1442 0002176  77.8089 282.3284 13.13470155154729
ONEWEB-0164             
1 48063U 21025X   24145.92816164 -.00000243  00000+0 -70060-3 0  9990
2 48063  87.8909 110.1573 0002137  85.9185 274.2188 13.13467792154714
ONEWEB-0167             
1 48064U 21025Y   24145.95754730  .00000230  00000+0  59398-3 0  9999
2 48064  87.8911 110.1631 0002111  78.2094 281.9272 13.13470707154695
ONEWEB-0166             
1 48065U 21025Z   24145.90277933  .00000143  00000+0  35594-3 0  9995
2 48065  87.8907 110.1585 0001855  77.4721 282.6616 13.13467623154762
ONEWEB-0151             
1 48066U 21025AA  24145.90436032  .00000091  00000+0  21427-3 0  9995
2 48066  87.8910 110.1708 0002183  85.0377 275.1001 13.13471780154709
ONEWEB-0170             
1 48067U 21025AB  24145.91229772 -.00000047  00000+0 -16367-3 0  9998
2 48067  87.8911 110.1713 0002405  96.0802 264.0601 13.13467457154663
ONEWEB-0168             
1 48068U 21025AC  24145.89802102  .00000258  00000+0  67045-3 0  9991
2 48068  87.8914 110.1433 0002037  80.7176 279.4183 13.13468357154677
ONEWEB-0173             
1 48069U 21025AD  24145.89008952  .00000280  00000+0  73085-3 0  9999
2 48069  87.8912 110.1555 0002452  77.2980 282.8423 13.13468100154914
